     2.100          NAVIGATION                              RINEX VERSION / TYPE
fic2rin                                 11/30/2016 00:07:18 PGM / RUN BY / DATE
                                                            END OF HEADER
17 16 11 29 11 59 44.0 -.198158901185D-03  .909494701773D-12  .000000000000D+00
     .800000000000D+01 -.112843750000D+03  .385230332104D-08 -.189854232269D+01
    -.571087002754D-05  .115344902733D-01  .100657343864D-04  .515378390312D+04
     .215984000000D+06  .214204192162D-06 -.265123205457D+00  .391155481339D-07
     .978664352773D+00  .190468750000D+03 -.190719415479D+01 -.748638326648D-08
     .592881838766D-10  .100000000000D+01  .192500000000D+04  .000000000000D+00
     .240000000000D+01  .000000000000D+00 -.107102096081D-07  .800000000000D+01
     .208806000000D+06  .400000000000D+01
24 16 11 29 11 59 44.0 -.267913565040D-04 -.568434188608D-12  .000000000000D+00
     .700000000000D+01  .128062500000D+03  .461590655675D-08  .261072498525D+01
     .668875873089D-05  .508438807447D-02  .635161995888D-05  .515372124290D+04
     .215984000000D+06 -.912696123123D-07 -.243447055528D+01 -.651925802231D-07
     .947590217268D+00  .249093750000D+03  .402599694328D+00 -.818212653270D-08
     .315370279295D-09  .100000000000D+01  .192500000000D+04  .000000000000D+00
     .240000000000D+01  .000000000000D+00  .232830643654D-08  .700000000000D+01
     .208806000000D+06  .400000000000D+01
 1 16 11 29 12  0  0.0  .420329160988D-04  .125055521494D-11  .000000000000D+00
     .970000000000D+02  .234687500000D+02  .454554648311D-08  .231229207433D+01
     .121444463730D-05  .601256778464D-02  .895187258720D-05  .515369491959D+04
     .216000000000D+06 -.130385160446D-06  .741033206482D+00 -.353902578354D-07
     .965817363153D+00  .208625000000D+03  .563081273658D+00 -.782354016757D-08
     .625740350312D-09  .100000000000D+01  .192500000000D+04  .000000000000D+00
     .340000000000D+01  .000000000000D+00  .512227416039D-08  .970000000000D+02
     .208806000000D+06  .400000000000D+01
 2 16 11 29 12  0  0.0  .518273562193D-03 -.579802872380D-11  .000000000000D+00
     .220000000000D+02  .111875000000D+02  .482341520032D-08  .277998003833D+01
     .517815351486D-06  .162006376777D-01  .908598303795D-05  .515368301392D+04
     .216000000000D+06  .651925802231D-07  .691494298919D+00 -.253319740295D-06
     .944710556655D+00  .190937500000D+03 -.206270557528D+01 -.775960893314D-08
     .516092925913D-09  .100000000000D+01  .192500000000D+04  .000000000000D+00
     .240000000000D+01  .000000000000D+00 -.200234353542D-07  .220000000000D+02
     .208806000000D+06  .400000000000D+01
 3 16 11 29 12  0  0.0 -.100561883301D-03 -.170530256582D-11  .000000000000D+00
     .540000000000D+02 -.134062500000D+02  .500592280249D-08  .920515108772D+00
    -.724568963051D-06  .387796666473D-03  .502541661263D-05  .515356205940D+04
     .216000000000D+06  .111758708954D-07  .178325274491D+01  .353902578354D-07
     .959005902468D+00  .279843750000D+03  .874422214464D+00 -.820605610089D-08
    -.296083761649D-09  .100000000000D+01  .192500000000D+04  .000000000000D+00
     .240000000000D+01  .000000000000D+00  .186264514923D-08  .540000000000D+02
     .208806000000D+06  .400000000000D+01
 4 16 11 29 12  0  0.0  .200266949832D-04  .295585778076D-11  .000000000000D+00
     .310000000000D+02  .314062500000D+02  .404123976243D-08 -.433680563645D+00
     .168196856976D-05  .830926757772D-02  .117234885693D-04  .515374563408D+04
     .216000000000D+06 -.212341547012D-06  .294283311466D+01 -.139698386192D-06
     .966363451454D+00  .160000000000D+03 -.944970758579D+00 -.774317967737D-08
    -.387516141603D-09  .100000000000D+01  .192500000000D+04  .000000000000D+00
     .340000000000D+01  .630000000000D+02 -.419095158577D-08  .310000000000D+02
     .208806000000D+06  .400000000000D+01
 5 16 11 29 12  0  0.0 -.751386396587D-04  .227373675443D-11  .000000000000D+00
     .860000000000D+02 -.133437500000D+02  .529522056719D-08 -.103694826423D+01
    -.687316060066D-06  .490094686393D-02  .454671680927D-05  .515363057137D+04
     .216000000000D+06  .100582838058D-06  .176884741838D+01  .130385160446D-07
     .946012464508D+00  .283937500000D+03  .560501220131D+00 -.839142096494D-08
    -.245367363393D-09  .100000000000D+01  .192500000000D+04  .000000000000D+00
     .240000000000D+01  .000000000000D+00 -.107102096081D-07  .860000000000D+02
     .208806000000D+06  .400000000000D+01
 6 16 11 29 12  0  0.0  .279368832707D-03  .500222085975D-11  .000000000000D+00
     .560000000000D+02  .126250000000D+02  .453161733148D-08  .275310741964D+01
     .804662704468D-06  .351777300239D-03  .886805355549D-05  .515356834793D+04
     .216000000000D+06  .651925802231D-07  .732644107145D+00 -.651925802231D-07
     .965626752242D+00  .209437500000D+03 -.152235541971D+01 -.787997108957D-08
     .537522389965D-09  .100000000000D+01  .192500000000D+04  .000000000000D+00
     .240000000000D+01  .000000000000D+00  .419095158577D-08  .560000000000D+02
     .208806000000D+06  .400000000000D+01
 7 16 11 29 12  0  0.0  .406660605222D-03 -.341060513165D-11  .000000000000D+00
     .940000000000D+02  .130812500000D+03  .437482508617D-08  .167127809124D+01
     .679306685925D-05  .100341740763D-01  .619702041149D-05  .515362480927D+04
     .216000000000D+06 -.134110450745D-06 -.238410478593D+01  .875443220139D-07
     .964492848827D+00  .262750000000D+03 -.261367050498D+01 -.817141180067D-08
     .238938524177D-09  .100000000000D+01  .192500000000D+04  .000000000000D+00
     .240000000000D+01  .000000000000D+00 -.111758708954D-07  .940000000000D+02
     .208806000000D+06  .400000000000D+01
 8 16 11 29 12  0  0.0 -.406280159950D-04 -.136424205266D-11  .000000000000D+00
     .800000000000D+02 -.108281250000D+03  .419196032626D-08 -.109098852099D+01
    -.574253499508D-05  .204210972879D-02  .105127692223D-04  .515379339409D+04
     .216000000000D+06 -.335276126862D-07 -.320229715904D+00 -.558793544769D-08
     .965464849635D+00  .181062500000D+03 -.989412227574D+00 -.784746973576D-08
    -.500020827875D-11  .100000000000D+01  .192500000000D+04  .000000000000D+00
     .240000000000D+01  .000000000000D+00  .512227416039D-08  .800000000000D+02
     .208806000000D+06  .400000000000D+01
 9 16 11 29 12  0  0.0  .253899488598D-03  .738964445191D-11  .000000000000D+00
     .420000000000D+02  .228437500000D+02  .443732768965D-08 -.161906725889D+01
     .107102096081D-05  .747671001591D-03  .113844871521D-04  .515374156761D+04
     .216000000000D+06  .186264514923D-07  .282103312866D+01  .000000000000D+00
     .954537644484D+00  .155500000000D+03  .175190637352D+01 -.783425489959D-08
    -.540379651839D-09  .100000000000D+01  .192500000000D+04  .000000000000D+00
     .240000000000D+01  .000000000000D+00  .139698386192D-08  .420000000000D+02
     .208806000000D+06  .400000000000D+01
10 16 11 29 12  0  0.0 -.115528237075D-03 -.795807864051D-12  .000000000000D+00
     .880000000000D+02 -.194062500000D+02  .500735143343D-08  .287023358281D+00
    -.114366412163D-05  .193623313680D-02  .468268990517D-05  .515366939163D+04
     .216000000000D+06 -.409781932831D-07  .177940629587D+01 -.745058059692D-08
     .959206443667D+00  .285906250000D+03 -.295212223631D+01 -.827034449304D-08
    -.384301721995D-09  .100000000000D+01  .192500000000D+04  .000000000000D+00
     .240000000000D+01  .000000000000D+00  .232830643654D-08  .880000000000D+02
     .208806000000D+06  .400000000000D+01
11 16 11 29 12  0  0.0 -.672605820000D-03 -.795807864051D-12  .000000000000D+00
     .980000000000D+02 -.193437500000D+02  .579309844866D-08  .174321863701D+01
    -.117346644402D-05  .167136655655D-01  .108554959297D-04  .515368838310D+04
     .216000000000D+06  .182539224625D-06  .351090100060D+00 -.353902578354D-06
     .899006857073D+00  .134093750000D+03  .160264131480D+01 -.834141888215D-08
     .533236497155D-09  .100000000000D+01  .192500000000D+04  .000000000000D+00
     .485000000000D+01  .000000000000D+00 -.121071934700D-07  .980000000000D+02
     .208806000000D+06  .400000000000D+01
13 16 11 29 12  0  0.0 -.574146397412D-04 -.193267624127D-11  .000000000000D+00
     .520000000000D+02  .339687500000D+02  .388551899032D-08  .270587829734D+01
     .186637043953D-05  .403139542323D-02  .116899609566D-04  .515369416046D+04
     .216000000000D+06 -.484287738800D-07  .294448104507D+01  .558793544769D-07
     .970844104742D+00  .159375000000D+03  .188514381734D+01 -.750459831093D-08
    -.422160441820D-09  .100000000000D+01  .192500000000D+04  .000000000000D+00
     .240000000000D+01  .000000000000D+00 -.111758708954D-07  .520000000000D+02
     .208806000000D+06  .400000000000D+01
14 16 11 29 12  0  0.0 -.472352840006D-04 -.170530256582D-11  .000000000000D+00
     .560000000000D+02  .450312500000D+02  .407624122038D-08 -.224644752135D+01
     .230967998505D-05  .866068503819D-02  .112485140562D-04  .515360951996D+04
     .216000000000D+06  .126659870148D-06  .290625321821D+01 -.894069671631D-07
     .963324558060D+00  .166281250000D+03 -.194595359438D+01 -.749316926343D-08
    -.388944772540D-09  .100000000000D+01  .192500000000D+04  .000000000000D+00
     .240000000000D+01  .000000000000D+00 -.931322574615D-08  .560000000000D+02
     .208806000000D+06  .400000000000D+01
15 16 11 29 12  0  0.0 -.335879623890D-03 -.125055521494D-11  .000000000000D+00
     .210000000000D+02  .228125000000D+01  .494199156807D-08 -.260622897425D+01
     .745058059692D-07  .886417913716D-02  .109616667032D-04  .515371254158D+04
     .216000000000D+06 -.149011611938D-07  .276391761037D+01 -.931322574615D-07
     .930160619209D+00  .152437500000D+03  .537871618318D+00 -.801926260590D-08
    -.450733060555D-09  .100000000000D+01  .192500000000D+04  .000000000000D+00
     .240000000000D+01  .000000000000D+00 -.107102096081D-07  .210000000000D+02
     .208806000000D+06  .400000000000D+01
